KUIPER-00214            
1 67778U 26030Q   26052.83335647 -.00008092  00000+0 -21635-3 0  9990
2 67778  51.8849 295.5137 0001680 133.2316   2.2501 15.36057381  2469
KUIPER-00215            
1 67779U 26030R   26052.83335647 -.00014511  00000+0 -42562-3 0  9996
2 67779  51.8839 295.6661 0009891  13.1513  48.5213 15.33826085  1306
KUIPER-00218            
1 67780U 26030S   26052.83335647 -.00012461  00000+0 -35612-3 0  9998
2 67780  51.8833 295.6196 0006208  10.4606  73.2705 15.34525861  1431
KUIPER-00220            
1 67781U 26030T   26052.83335647 -.00013207  00000+0 -38386-3 0  9999
2 67781  51.8810 295.6459 0007868  11.3441  57.9670 15.34044310  2187
KUIPER-00222            
1 67782U 26030U   26052.83335647 -.00014922  00000+0 -45584-3 0  9993
2 67782  51.8807 295.7354 0016684  17.0353   7.4543 15.32470227  2514
KUIPER-00223            
1 67783U 26030V   26052.83335647 -.00014241  00000+0 -42082-3 0  9998
2 67783  51.8826 295.6823 0011987  12.7455  40.0208 15.33548033  2335
KUIPER-00225            
1 67784U 26030W   26052.83335647 -.00011505  00000+0 -32137-3 0  9999
2 67784  51.8812 295.5733 0003378   3.1755 102.0374 15.35168123  1581
KUIPER-00226            
1 67785U 26030X   26052.83335647 -.00014207  00000+0 -44240-3 0  9990
2 67785  51.8812 295.7823 0019282  24.5029 337.3521 15.31770890  1309
KUIPER-00259            
1 67786U 26030Y   26052.83335647 -.00014136  00000+0 -40758-3 0  9992
2 67786  51.8809 295.6272 0007706   4.3774  74.0726 15.34358892  2629
KUIPER-00260            
1 67787U 26030Z   26052.83335647 -.00010045  00000+0 -27381-3 0  9995
2 67787  51.8804 295.5337 0001146  84.6153  39.9197 15.35771074  2488
KUIPER-00262            
1 67788U 26030AA  26052.83335647 -.00008649  00000+0 -23248-3 0  9991
2 67788  51.8817 295.5206 0001768 117.2933  14.1959 15.35997121  1301
KUIPER-00266            
1 67789U 26030AB  26052.83335647 -.00014135  00000+0 -44442-3 0  9998
2 67789  51.8809 295.8019 0021999  25.3988 325.8691 15.31400078  1407
